{
  "lastUpdated": 1672386488820,
  "countries": [
    {
      "region": 142,
      "subRegion": 34,
      "name": "Afghanistan",
      "m49code": 4,
      "alpha2": "AF",
      "alpha3": "AFG",
      "LDC": true,
      "LLDC": true,
      "nameFR": "Afghanistan",
      "nameES": "Afganistán",
      "nameRU": "Афганистан",
      "nameZH": "阿富汗",
      "nameAR": " أفغانستان"
    },
    {
      "region": 150,
      "subRegion": 39,
      "name": "Albania",
      "m49code": 8,
      "alpha2": "AL",
      "alpha3": "ALB",
      "nameFR": "Albanie",
      "nameES": "Albania",
      "nameRU": "Албания",
      "nameZH": "阿尔巴尼亚",
      "nameAR": " ألبانيا"
    },
    {
      "region": 2,
      "subRegion": 15,
      "name": "Algeria",
      "m49code": 12,
      "alpha2": "DZ",
      "alpha3": "DZA",
      "nameFR": "Algérie",
      "nameES": "Argelia",
      "nameRU": "Алжир",
      "nameZH": "阿尔及利亚",
      "nameAR": " الجزائر"
    },
    {
      "region": 9,
      "subRegion": 61,
      "name": "American Samoa",
      "m49code": 16,
      "alpha2": "AS",
      "alpha3": "ASM",
      "SIDS": true,
      "nameFR": "Samoa américaines",
      "nameES": "Samoa Americana",
      "nameRU": "Американское Самоа",
      "nameZH": "美属萨摩亚",
      "nameAR": " ساموا الأمريكية"
    },
    {
      "region": 150,
      "subRegion": 39,
      "name": "Andorra",
      "m49code": 20,
      "alpha2": "AD",
      "alpha3": "AND",
      "nameFR": "Andorre",
      "nameES": "Andorra",
      "nameRU": "Андорра",
      "nameZH": "安道尔",
      "nameAR": " أندورا"
    },
    {
      "region": 2,
      "subRegion": 202,
      "intermediateRegion": 17,
      "name": "Angola",
      "m49code": 24,
      "alpha2": "AO",
      "alpha3": "AGO",
      "LDC": true,
      "nameFR": "Angola",
      "nameES": "Angola",
      "nameRU": "Ангола",
      "nameZH": "安哥拉",
      "nameAR": "أنغولا"
    },
    {
      "region": 19,
      "subRegion": 419,
      "intermediateRegion": 29,
      "name": "Anguilla",
      "m49code": 660,
      "alpha2": "AI",
      "alpha3": "AIA",
      "SIDS": true,
      "nameFR": "Anguilla",
      "nameES": "Anguila",
      "nameRU": "Ангилья",
      "nameZH": "安圭拉",
      "nameAR": "أنغويلا"
    },
    {
      "name": "Antarctica",
      "m49code": 10,
      "alpha2": "AQ",
      "alpha3": "ATA",
      "nameFR": "Antarctique",
      "nameES": "Antártida",
      "nameRU": "Антарктике",
      "nameZH": "南极洲",
      "nameAR": "أنتاركتيكا"
    },
    {
      "region": 19,
      "subRegion": 419,
      "intermediateRegion": 29,
      "name": "Antigua and Barbuda",
      "m49code": 28,
      "alpha2": "AG",
      "alpha3": "ATG",
      "SIDS": true,
      "nameFR": "Antigua-et-Barbuda",
      "nameES": "Antigua y Barbuda",
      "nameRU": "Антигуа и Барбуда",
      "nameZH": "安提瓜和巴布达",
      "nameAR": "أنتيغوا وبربودا"
    },
    {
      "region": 19,
      "subRegion": 419,
      "intermediateRegion": 5,
      "name": "Argentina",
      "m49code": 32,
      "alpha2": "AR",
      "alpha3": "ARG",
      "nameFR": "Argentine",
      "nameES": "Argentina",
      "nameRU": "Аргентина",
      "nameZH": "阿根廷",
      "nameAR": "الأرجنتين"
    },
    {
      "region": 142,
      "subRegion": 145,
      "name": "Armenia",
      "m49code": 51,
      "alpha2": "AM",
      "alpha3": "ARM",
      "LLDC": true,
      "nameFR": "Arménie",
      "nameES": "Armenia",
      "nameRU": "Армения",
      "nameZH": "亚美尼亚",
      "nameAR": " أرمينيا"
    },
    {
      "region": 19,
      "subRegion": 419,
      "intermediateRegion": 29,
      "name": "Aruba",
      "m49code": 533,
      "alpha2": "AW",
      "alpha3": "ABW",
      "SIDS": true,
      "nameFR": "Aruba",
      "nameES": "Aruba",
      "nameRU": "Аруба",
      "nameZH": "阿鲁巴",
      "nameAR": "أروبا"
    },
    {
      "region": 9,
      "subRegion": 53,
      "name": "Australia",
      "m49code": 36,
      "alpha2": "AU",
      "alpha3": "AUS",
      "nameFR": "Australie",
      "nameES": "Australia",
      "nameRU": "Австралия",
      "nameZH": "澳大利亚",
      "nameAR": " أستراليا"
    },
    {
      "region": 150,
      "subRegion": 155,
      "name": "Austria",
      "m49code": 40,
      "alpha2": "AT",
      "alpha3": "AUT",
      "nameFR": "Autriche",
      "nameES": "Austria",
      "nameRU": "Австрия",
      "nameZH": "奥地利",
      "nameAR": " النمسا"
    },
    {
      "region": 142,
      "subRegion": 145,
      "name": "Azerbaijan",
      "m49code": 31,
      "alpha2": "AZ",
      "alpha3": "AZE",
      "LLDC": true,
      "nameFR": "Azerbaïdjan",
      "nameES": "Azerbaiyán",
      "nameRU": "Азербайджан",
      "nameZH": "阿塞拜疆",
      "nameAR": " أذربيجان"
    },
    {
      "region": 19,
      "subRegion": 419,
      "intermediateRegion": 29,
      "name": "Bahamas",
      "m49code": 44,
      "alpha2": "BS",
      "alpha3": "BHS",
      "SIDS": true,
      "nameFR": "Bahamas",
      "nameES": "Bahamas",
      "nameRU": "Багамские Острова",
      "nameZH": "巴哈马",
      "nameAR": "جزر البهاما"
    },
    {
      "region": 142,
      "subRegion": 145,
      "name": "Bahrain",
      "m49code": 48,
      "alpha2": "BH",
      "alpha3": "BHR",
      "nameFR": "Bahreïn",
      "nameES": "Bahrein",
      "nameRU": "Бахрейн",
      "nameZH": "巴林",
      "nameAR": " البحرين"
    },
    {
      "region": 142,
      "subRegion": 34,
      "name": "Bangladesh",
      "m49code": 50,
      "alpha2": "BD",
      "alpha3": "BGD",
      "LDC": true,
      "nameFR": "Bangladesh",
      "nameES": "Bangladesh",
      "nameRU": "Бангладеш",
      "nameZH": "孟加拉国",
      "nameAR": " بنغلاديش"
    },
    {
      "region": 19,
      "subRegion": 419,
      "intermediateRegion": 29,
      "name": "Barbados",
      "m49code": 52,
      "alpha2": "BB",
      "alpha3": "BRB",
      "SIDS": true,
      "nameFR": "Barbade",
      "nameES": "Barbados",
      "nameRU": "Барбадос",
      "nameZH": "巴巴多斯",
      "nameAR": "بربادوس"
    },
    {
      "region": 150,
      "subRegion": 151,
      "name": "Belarus",
      "m49code": 112,
      "alpha2": "BY",
      "alpha3": "BLR",
      "nameFR": "Bélarus",
      "nameES": "Belarús",
      "nameRU": "Беларусь",
      "nameZH": "白俄罗斯",
      "nameAR": " بيلاروس"
    },
    {
      "region": 150,
      "subRegion": 155,
      "name": "Belgium",
      "m49code": 56,
      "alpha2": "BE",
      "alpha3": "BEL",
      "nameFR": "Belgique",
      "nameES": "Bélgica",
      "nameRU": "Бельгия",
      "nameZH": "比利时",
      "nameAR": " بلجيكا"
    },
    {
      "region": 19,
      "subRegion": 419,
      "intermediateRegion": 13,
      "name": "Belize",
      "m49code": 84,
      "alpha2": "BZ",
      "alpha3": "BLZ",
      "SIDS": true,
      "nameFR": "Belize",
      "nameES": "Belice",
      "nameRU": "Белиз",
      "nameZH": "伯利兹",
      "nameAR": "بليز"
    },
    {
      "region": 2,
      "subRegion": 202,
      "intermediateRegion": 11,
      "name": "Benin",
      "m49code": 204,
      "alpha2": "BJ",
      "alpha3": "BEN",
      "LDC": true,
      "nameFR": "Bénin",
      "nameES": "Benin",
      "nameRU": "Бенин",
      "nameZH": "贝宁",
      "nameAR": "بنن"
    },
    {
      "region": 19,
      "subRegion": 21,
      "name": "Bermuda",
      "m49code": 60,
      "alpha2": "BM",
      "alpha3": "BMU",
      "nameFR": "Bermudes",
      "nameES": "Bermuda",
      "nameRU": "Бермудские острова",
      "nameZH": "百慕大",
      "nameAR": " برمودا"
    },
    {
      "region": 142,
      "subRegion": 34,
      "name": "Bhutan",
      "m49code": 64,
      "alpha2": "BT",
      "alpha3": "BTN",
      "LDC": true,
      "LLDC": true,
      "nameFR": "Bhoutan",
      "nameES": "Bhután",
      "nameRU": "Бутан",
      "nameZH": "不丹",
      "nameAR": " بوتان"
    },
    {
      "region": 19,
      "subRegion": 419,
      "intermediateRegion": 5,
      "name": "Bolivia (Plurinational State of)",
      "m49code": 68,
      "alpha2": "BO",
      "alpha3": "BOL",
      "LLDC": true,
      "nameFR": "Bolivie (État plurinational de)",
      "nameES": "Bolivia (Estado Plurinacional de)",
      "nameRU": "Боливия (Многонациональное Государство)",
      "nameZH": "多民族玻利维亚国",
      "nameAR": "بوليفيا (دولة - المتعددة القوميات)"
    },
    {
      "region": 19,
      "subRegion": 419,
      "intermediateRegion": 29,
      "name": "Bonaire, Sint Eustatius and Saba",
      "m49code": 535,
      "alpha2": "BQ",
      "alpha3": "BES",
      "SIDS": true,
      "nameFR": "Bonaire, Saint-Eustache et Saba",
      "nameES": "Bonaire, San Eustaquio y Saba",
      "nameRU": "Бонайре, Синт-Эстатиус и Саба",
      "nameZH": "博纳尔，圣俄斯塔休斯和萨巴",
      "nameAR": "بونير وسانت يوستاشيوس وسابا"
    },
    {
      "region": 150,
      "subRegion": 39,
      "name": "Bosnia and Herzegovina",
      "m49code": 70,
      "alpha2": "BA",
      "alpha3": "BIH",
      "nameFR": "Bosnie-Herzégovine",
      "nameES": "Bosnia y Herzegovina",
      "nameRU": "Босния и Герцеговина",
      "nameZH": "波斯尼亚和黑塞哥维那",
      "nameAR": " البوسنة والهرسك"
    },
    {
      "region": 2,
      "subRegion": 202,
      "intermediateRegion": 18,
      "name": "Botswana",
      "m49code": 72,
      "alpha2": "BW",
      "alpha3": "BWA",
      "LLDC": true,
      "nameFR": "Botswana",
      "nameES": "Botswana",
      "nameRU": "Ботсвана",
      "nameZH": "博茨瓦纳",
      "nameAR": "بوتسوانا"
    },
    {
      "region": 19,
      "subRegion": 419,
      "intermediateRegion": 5,
      "name": "Bouvet Island",
      "m49code": 74,
      "alpha2": "BV",
      "alpha3": "BVT",
      "nameFR": "Île Bouvet",
      "nameES": "Isla Bouvet",
      "nameRU": "Остров Буве",
      "nameZH": "布维岛",
      "nameAR": "جزيرة بوفيت"
    },
    {
      "region": 19,
      "subRegion": 419,
      "intermediateRegion": 5,
      "name": "Brazil",
      "m49code": 76,
      "alpha2": "BR",
      "alpha3": "BRA",
      "nameFR": "Brésil",
      "nameES": "Brasil",
      "nameRU": "Бразилия",
      "nameZH": "巴西",
      "nameAR": "البرازيل"
    },
    {
      "region": 2,
      "subRegion": 202,
      "intermediateRegion": 14,
      "name": "British Indian Ocean Territory",
      "m49code": 86,
      "alpha2": "IO",
      "alpha3": "IOT",
      "nameFR": "Territoire britannique de l'océan Indien",
      "nameES": "Territorio Británico del Océano Índico",
      "nameRU": "Британская территория в Индийском океане",
      "nameZH": "英属印度洋领土",
      "nameAR": "المحيط الهندي الإقليم البريطاني في"
    },
    {
      "region": 19,
      "subRegion": 419,
      "intermediateRegion": 29,
      "name": "British Virgin Islands",
      "m49code": 92,
      "alpha2": "VG",
      "alpha3": "VGB",
      "SIDS": true,
      "nameFR": "Îles Vierges britanniques",
      "nameES": "Islas Vírgenes Británicas",
      "nameRU": "Британские Виргинские острова",
      "nameZH": "英属维尔京群岛",
      "nameAR": "جزر فرجن البريطانية"
    },
    {
      "region": 142,
      "subRegion": 35,
      "name": "Brunei Darussalam",
      "m49code": 96,
      "alpha2": "BN",
      "alpha3": "BRN",
      "nameFR": "Brunéi Darussalam",
      "nameES": "Brunei Darussalam",
      "nameRU": "Бруней-Даруссалам",
      "nameZH": "文莱达鲁萨兰国",
      "nameAR": " بروني دار السلام"
    },
    {
      "region": 150,
      "subRegion": 151,
      "name": "Bulgaria",
      "m49code": 100,
      "alpha2": "BG",
      "alpha3": "BGR",
      "nameFR": "Bulgarie",
      "nameES": "Bulgaria",
      "nameRU": "Болгария",
      "nameZH": "保加利亚",
      "nameAR": " بلغاريا"
    },
    {
      "region": 2,
      "subRegion": 202,
      "intermediateRegion": 11,
      "name": "Burkina Faso",
      "m49code": 854,
      "alpha2": "BF",
      "alpha3": "BFA",
      "LDC": true,
      "LLDC": true,
      "nameFR": "Burkina Faso",
      "nameES": "Burkina Faso",
      "nameRU": "Буркина-Фасо",
      "nameZH": "布基纳法索",
      "nameAR": "بوركينا فاسو"
    },
    {
      "region": 2,
      "subRegion": 202,
      "intermediateRegion": 14,
      "name": "Burundi",
      "m49code": 108,
      "alpha2": "BI",
      "alpha3": "BDI",
      "LDC": true,
      "LLDC": true,
      "nameFR": "Burundi",
      "nameES": "Burundi",
      "nameRU": "Бурунди",
      "nameZH": "布隆迪",
      "nameAR": "بوروندي"
    },
    {
      "region": 2,
      "subRegion": 202,
      "intermediateRegion": 11,
      "name": "Cabo Verde",
      "m49code": 132,
      "alpha2": "CV",
      "alpha3": "CPV",
      "SIDS": true,
      "nameFR": "Cabo Verde",
      "nameES": "Cabo Verde",
      "nameRU": "Кабо-Верде",
      "nameZH": "佛得角",
      "nameAR": "كابو فيردي"
    },
    {
      "region": 142,
      "subRegion": 35,
      "name": "Cambodia",
      "m49code": 116,
      "alpha2": "KH",
      "alpha3": "KHM",
      "LDC": true,
      "nameFR": "Cambodge",
      "nameES": "Camboya",
      "nameRU": "Камбоджа",
      "nameZH": "柬埔寨",
      "nameAR": " كمبوديا"
    },
    {
      "region": 2,
      "subRegion": 202,
      "intermediateRegion": 17,
      "name": "Cameroon",
      "m49code": 120,
      "alpha2": "CM",
      "alpha3": "CMR",
      "nameFR": "Cameroun",
      "nameES": "Camerún",
      "nameRU": "Камерун",
      "nameZH": "喀麦隆",
      "nameAR": "الكاميرون"
    },
    {
      "region": 19,
      "subRegion": 21,
      "name": "Canada",
      "m49code": 124,
      "alpha2": "CA",
      "alpha3": "CAN",
      "nameFR": "Canada",
      "nameES": "Canadá",
      "nameRU": "Канада",
      "nameZH": "加拿大",
      "nameAR": " كندا"
    },
    {
      "region": 19,
      "subRegion": 419,
      "intermediateRegion": 29,
      "name": "Cayman Islands",
      "m49code": 136,
      "alpha2": "KY",
      "alpha3": "CYM",
      "nameFR": "Îles Caïmanes",
      "nameES": "Islas Caimán",
      "nameRU": "Кайман острова",
      "nameZH": "开曼群岛",
      "nameAR": "جزر كايمان"
    },
    {
      "region": 2,
      "subRegion": 202,
      "intermediateRegion": 17,
      "name": "Central African Republic",
      "m49code": 140,
      "alpha2": "CF",
      "alpha3": "CAF",
      "LDC": true,
      "LLDC": true,
      "nameFR": "République centrafricaine",
      "nameES": "República Centroafricana",
      "nameRU": "Центральноафриканская Республика",
      "nameZH": "中非共和国",
      "nameAR": "جمهورية أفريقيا الوسطى"
    },
    {
      "region": 2,
      "subRegion": 202,
      "intermediateRegion": 17,
      "name": "Chad",
      "m49code": 148,
      "alpha2": "TD",
      "alpha3": "TCD",
      "LDC": true,
      "LLDC": true,
      "nameFR": "Tchad",
      "nameES": "Chad",
      "nameRU": "Чад",
      "nameZH": "乍得",
      "nameAR": "تشاد"
    },
    {
      "region": 19,
      "subRegion": 419,
      "intermediateRegion": 5,
      "name": "Chile",
      "m49code": 152,
      "alpha2": "CL",
      "alpha3": "CHL",
      "nameFR": "Chili",
      "nameES": "Chile",
      "nameRU": "Чили",
      "nameZH": "智利",
      "nameAR": "شيلي"
    },
    {
      "region": 142,
      "subRegion": 30,
      "name": "China",
      "m49code": 156,
      "alpha2": "CN",
      "alpha3": "CHN",
      "nameFR": "Chine",
      "nameES": "China",
      "nameRU": "Китай",
      "nameZH": "中国",
      "nameAR": " الصين"
    },
    {
      "region": 142,
      "subRegion": 30,
      "name": "China, Hong Kong Special Administrative Region",
      "m49code": 344,
      "alpha2": "HK",
      "alpha3": "HKG",
      "nameFR": "Chine, région administrative spéciale de Hong Kong",
      "nameES": "China, región administrativa especial de Hong Kong",
      "nameRU": "Китай, Специальный административный район Гонконг",
      "nameZH": "中国香港特别行政区",
      "nameAR": " الصين، منطقة هونغ كونغ الإدارية الخاصة"
    },
    {
      "region": 142,
      "subRegion": 30,
      "name": "China, Macao Special Administrative Region",
      "m49code": 446,
      "alpha2": "MO",
      "alpha3": "MAC",
      "nameFR": "Chine, région administrative spéciale de Macao",
      "nameES": "China, región administrativa especial de Macao",
      "nameRU": "Китай, Специальный административный район Макао",
      "nameZH": "中国澳门特别行政区",
      "nameAR": " الصين، منطقة ماكاو الإدارية الخاصة"
    },
    {
      "region": 9,
      "subRegion": 53,
      "name": "Christmas Island",
      "m49code": 162,
      "alpha2": "CX",
      "alpha3": "CXR",
      "nameFR": "Île Christmas",
      "nameES": "Isla Christmas",
      "nameRU": "остров Рождества",
      "nameZH": "圣诞岛",
      "nameAR": " جزيرة عيد الميلاد"
    },
    {
      "region": 9,
      "subRegion": 53,
      "name": "Cocos (Keeling) Islands",
      "m49code": 166,
      "alpha2": "CC",
      "alpha3": "CCK",
      "nameFR": "Îles des Cocos (Keeling)",
      "nameES": "Islas Cocos (Keeling)",
      "nameRU": "Кокосовых (Килинг) островов",
      "nameZH": "科科斯（基林）群岛",
      "nameAR": " جزر كوكس (كيلينغ)"
    },
    {
      "region": 19,
      "subRegion": 419,
      "intermediateRegion": 5,
      "name": "Colombia",
      "m49code": 170,
      "alpha2": "CO",
      "alpha3": "COL",
      "nameFR": "Colombie",
      "nameES": "Colombia",
      "nameRU": "Колумбия",
      "nameZH": "哥伦比亚",
      "nameAR": "كولومبيا"
    },
    {
      "region": 2,
      "subRegion": 202,
      "intermediateRegion": 14,
      "name": "Comoros",
      "m49code": 174,
      "alpha2": "KM",
      "alpha3": "COM",
      "LDC": true,
      "SIDS": true,
      "nameFR": "Comores",
      "nameES": "Comoras",
      "nameRU": "Коморские Острова",
      "nameZH": "科摩罗",
      "nameAR": "جزر القمر"
    },
    {
      "region": 2,
      "subRegion": 202,
      "intermediateRegion": 17,
      "name": "Congo",
      "m49code": 178,
      "alpha2": "CG",
      "alpha3": "COG",
      "nameFR": "Congo",
      "nameES": "Congo",
      "nameRU": "Конго",
      "nameZH": "刚果",
      "nameAR": "الكونغو"
    },
    {
      "region": 9,
      "subRegion": 61,
      "name": "Cook Islands",
      "m49code": 184,
      "alpha2": "CK",
      "alpha3": "COK",
      "SIDS": true,
      "nameFR": "Îles Cook",
      "nameES": "Islas Cook",
      "nameRU": "Острова Кука",
      "nameZH": "库克群岛",
      "nameAR": " جزر كوك"
    },
    {
      "region": 19,
      "subRegion": 419,
      "intermediateRegion": 13,
      "name": "Costa Rica",
      "m49code": 188,
      "alpha2": "CR",
      "alpha3": "CRI",
      "nameFR": "Costa Rica",
      "nameES": "Costa Rica",
      "nameRU": "Коста-Рика",
      "nameZH": "哥斯达黎加",
      "nameAR": "كوستاريكا"
    },
    {
      "region": 150,
      "subRegion": 39,
      "name": "Croatia",
      "m49code": 191,
      "alpha2": "HR",
      "alpha3": "HRV",
      "nameFR": "Croatie",
      "nameES": "Croacia",
      "nameRU": "Хорватия",
      "nameZH": "克罗地亚",
      "nameAR": " كرواتيا"
    },
    {
      "region": 19,
      "subRegion": 419,
      "intermediateRegion": 29,
      "name": "Cuba",
      "m49code": 192,
      "alpha2": "CU",
      "alpha3": "CUB",
      "SIDS": true,
      "nameFR": "Cuba",
      "nameES": "Cuba",
      "nameRU": "Куба",
      "nameZH": "古巴",
      "nameAR": "كوبا"
    },
    {
      "region": 19,
      "subRegion": 419,
      "intermediateRegion": 29,
      "name": "Curaçao",
      "m49code": 531,
      "alpha2": "CW",
      "alpha3": "CUW",
      "SIDS": true,
      "nameFR": "Curaçao",
      "nameES": "Curazao",
      "nameRU": "Кюрасао",
      "nameZH": "库拉索",
      "nameAR": "كوراساو"
    },
    {
      "region": 142,
      "subRegion": 145,
      "name": "Cyprus",
      "m49code": 196,
      "alpha2": "CY",
      "alpha3": "CYP",
      "nameFR": "Chypre",
      "nameES": "Chipre",
      "nameRU": "Кипр",
      "nameZH": "塞浦路斯",
      "nameAR": " قبرص"
    },
    {
      "region": 150,
      "subRegion": 151,
      "name": "Czechia",
      "m49code": 203,
      "alpha2": "CZ",
      "alpha3": "CZE",
      "nameFR": "Tchéquie",
      "nameES": "Chequia",
      "nameRU": "Чехия",
      "nameZH": "捷克",
      "nameAR": " تشيكيا"
    },
    {
      "region": 2,
      "subRegion": 202,
      "intermediateRegion": 11,
      "name": "Côte d’Ivoire",
      "m49code": 384,
      "alpha2": "CI",
      "alpha3": "CIV",
      "nameFR": "Côte d’Ivoire",
      "nameES": "Côte d’Ivoire",
      "nameRU": "Кот-д'Ивуар",
      "nameZH": "科特迪瓦",
      "nameAR": "كوت ديفوار"
    },
    {
      "region": 142,
      "subRegion": 30,
      "name": "Democratic People's Republic of Korea",
      "m49code": 408,
      "alpha2": "KP",
      "alpha3": "PRK",
      "nameFR": "République populaire démocratique de Corée",
      "nameES": "República Popular Democrática de Corea",
      "nameRU": "Корейская Народно-Демократическая Республика",
      "nameZH": "朝鲜民主主义人民共和国",
      "nameAR": " جمهورية كوريا الشعبية الديمقراطية"
    },
    {
      "region": 2,
      "subRegion": 202,
      "intermediateRegion": 17,
      "name": "Democratic Republic of the Congo",
      "m49code": 180,
      "alpha2": "CD",
      "alpha3": "COD",
      "LDC": true,
      "nameFR": "République démocratique du Congo",
      "nameES": "República Democrática del Congo",
      "nameRU": "Демократическая Республика Конго",
      "nameZH": "刚果民主共和国",
      "nameAR": "جمهورية الكونغو الديمقراطية"
    },
    {
      "region": 150,
      "subRegion": 154,
      "name": "Denmark",
      "m49code": 208,
      "alpha2": "DK",
      "alpha3": "DNK",
      "nameFR": "Danemark",
      "nameES": "Dinamarca",
      "nameRU": "Дания",
      "nameZH": "丹麦",
      "nameAR": " الدانمرك"
    },
    {
      "region": 2,
      "subRegion": 202,
      "intermediateRegion": 14,
      "name": "Djibouti",
      "m49code": 262,
      "alpha2": "DJ",
      "alpha3": "DJI",
      "LDC": true,
      "nameFR": "Djibouti",
      "nameES": "Djibouti",
      "nameRU": "Джибути",
      "nameZH": "吉布提",
      "nameAR": "جيبوتي"
    },
    {
      "region": 19,
      "subRegion": 419,
      "intermediateRegion": 29,
      "name": "Dominica",
      "m49code": 212,
      "alpha2": "DM",
      "alpha3": "DMA",
      "SIDS": true,
      "nameFR": "Dominique",
      "nameES": "Dominica",
      "nameRU": "Доминика",
      "nameZH": "多米尼克",
      "nameAR": "دومينيكا"
    },
    {
      "region": 19,
      "subRegion": 419,
      "intermediateRegion": 29,
      "name": "Dominican Republic",
      "m49code": 214,
      "alpha2": "DO",
      "alpha3": "DOM",
      "SIDS": true,
      "nameFR": "République dominicaine",
      "nameES": "República Dominicana",
      "nameRU": "Доминиканская Республика",
      "nameZH": "多米尼加",
      "nameAR": "الجمهورية الدومينيكية"
    },
    {
      "region": 19,
      "subRegion": 419,
      "intermediateRegion": 5,
      "name": "Ecuador",
      "m49code": 218,
      "alpha2": "EC",
      "alpha3": "ECU",
      "nameFR": "Équateur",
      "nameES": "Ecuador",
      "nameRU": "Эквадор",
      "nameZH": "厄瓜多尔",
      "nameAR": "إكوادور"
    },
    {
      "region": 2,
      "subRegion": 15,
      "name": "Egypt",
      "m49code": 818,
      "alpha2": "EG",
      "alpha3": "EGY",
      "nameFR": "Égypte",
      "nameES": "Egipto",
      "nameRU": "Египет",
      "nameZH": "埃及",
      "nameAR": " مصر"
    },
    {
      "region": 19,
      "subRegion": 419,
      "intermediateRegion": 13,
      "name": "El Salvador",
      "m49code": 222,
      "alpha2": "SV",
      "alpha3": "SLV",
      "nameFR": "El Salvador",
      "nameES": "El Salvador",
      "nameRU": "Сальвадор",
      "nameZH": "萨尔瓦多",
      "nameAR": "السلفادور"
    },
    {
      "region": 2,
      "subRegion": 202,
      "intermediateRegion": 17,
      "name": "Equatorial Guinea",
      "m49code": 226,
      "alpha2": "GQ",
      "alpha3": "GNQ",
      "nameFR": "Guinée équatoriale",
      "nameES": "Guinea Ecuatorial",
      "nameRU": "Экваториальная Гвинея",
      "nameZH": "赤道几内亚",
      "nameAR": "غينيا الاستوائية"
    },
    {
      "region": 2,
      "subRegion": 202,
      "intermediateRegion": 14,
      "name": "Eritrea",
      "m49code": 232,
      "alpha2": "ER",
      "alpha3": "ERI",
      "LDC": true,
      "nameFR": "Érythrée",
      "nameES": "Eritrea",
      "nameRU": "Эритрея",
      "nameZH": "厄立特里亚",
      "nameAR": "إريتريا"
    },
    {
      "region": 150,
      "subRegion": 154,
      "name": "Estonia",
      "m49code": 233,
      "alpha2": "EE",
      "alpha3": "EST",
      "nameFR": "Estonie",
      "nameES": "Estonia",
      "nameRU": "Эстония",
      "nameZH": "爱沙尼亚",
      "nameAR": " إستونيا"
    },
    {
      "region": 2,
      "subRegion": 202,
      "intermediateRegion": 18,
      "name": "Eswatini",
      "m49code": 748,
      "alpha2": "SZ",
      "alpha3": "SWZ",
      "LLDC": true,
      "nameFR": "Eswatini",
      "nameES": "Eswatini",
      "nameRU": "Эсватини",
      "nameZH": "斯威士兰",
      "nameAR": "إسواتيني"
    },
    {
      "region": 2,
      "subRegion": 202,
      "intermediateRegion": 14,
      "name": "Ethiopia",
      "m49code": 231,
      "alpha2": "ET",
      "alpha3": "ETH",
      "LDC": true,
      "LLDC": true,
      "nameFR": "Éthiopie",
      "nameES": "Etiopía",
      "nameRU": "Эфиопия",
      "nameZH": "埃塞俄比亚",
      "nameAR": "إثيوبيا"
    },
    {
      "region": 19,
      "subRegion": 419,
      "intermediateRegion": 5,
      "name": "Falkland Islands (Malvinas)",
      "m49code": 238,
      "alpha2": "FK",
      "alpha3": "FLK",
      "nameFR": "Îles Falkland (Malvinas)",
      "nameES": "Islas Malvinas (Falkland)",
      "nameRU": "Фолклендские (Мальвинские) острова",
      "nameZH": "福克兰群岛（马尔维纳斯）",
      "nameAR": "جزر فوكلاند (مالفيناس)"
    },
    {
      "region": 150,
      "subRegion": 154,
      "name": "Faroe Islands",
      "m49code": 234,
      "alpha2": "FO",
      "alpha3": "FRO",
      "nameFR": "Îles Féroé",
      "nameES": "Islas Feroe",
      "nameRU": "Фарерские острова",
      "nameZH": "法罗群岛",
      "nameAR": " جزر فايرو"
    },
    {
      "region": 9,
      "subRegion": 54,
      "name": "Fiji",
      "m49code": 242,
      "alpha2": "FJ",
      "alpha3": "FJI",
      "SIDS": true,
      "nameFR": "Fidji",
      "nameES": "Fiji",
      "nameRU": "Фиджи",
      "nameZH": "斐济",
      "nameAR": " فيجي"
    },
    {
      "region": 150,
      "subRegion": 154,
      "name": "Finland",
      "m49code": 246,
      "alpha2": "FI",
      "alpha3": "FIN",
      "nameFR": "Finlande",
      "nameES": "Finlandia",
      "nameRU": "Финляндия",
      "nameZH": "芬兰",
      "nameAR": " فنلندا"
    },
    {
      "region": 150,
      "subRegion": 155,
      "name": "France",
      "m49code": 250,
      "alpha2": "FR",
      "alpha3": "FRA",
      "nameFR": "France",
      "nameES": "Francia",
      "nameRU": "Франция",
      "nameZH": "法国",
      "nameAR": " فرنسا"
    },
    {
      "region": 19,
      "subRegion": 419,
      "intermediateRegion": 5,
      "name": "French Guiana",
      "m49code": 254,
      "alpha2": "GF",
      "alpha3": "GUF",
      "nameFR": "Guyane française",
      "nameES": "Guayana Francesa",
      "nameRU": "Французская Гвиана",
      "nameZH": "法属圭亚那",
      "nameAR": "غيانا الفرنسية"
    },
    {
      "region": 9,
      "subRegion": 61,
      "name": "French Polynesia",
      "m49code": 258,
      "alpha2": "PF",
      "alpha3": "PYF",
      "SIDS": true,
      "nameFR": "Polynésie française",
      "nameES": "Polinesia Francesa",
      "nameRU": "Французская Полинезия",
      "nameZH": "法属波利尼西亚",
      "nameAR": " بولينيزيا الفرنسية"
    },
    {
      "region": 2,
      "subRegion": 202,
      "intermediateRegion": 14,
      "name": "French Southern Territories",
      "m49code": 260,
      "alpha2": "TF",
      "alpha3": "ATF",
      "nameFR": "Terres australes françaises",
      "nameES": "Territorio de las Tierras Australes Francesas",
      "nameRU": "Южные земли (французская заморская территория)",
      "nameZH": "法属南方领地",
      "nameAR": "الأراضي الفرنسية الجنوبية الجنوبية "
    },
    {
      "region": 2,
      "subRegion": 202,
      "intermediateRegion": 17,
      "name": "Gabon",
      "m49code": 266,
      "alpha2": "GA",
      "alpha3": "GAB",
      "nameFR": "Gabon",
      "nameES": "Gabón",
      "nameRU": "Габон",
      "nameZH": "加蓬",
      "nameAR": "غابون"
    },
    {
      "region": 2,
      "subRegion": 202,
      "intermediateRegion": 11,
      "name": "Gambia",
      "m49code": 270,
      "alpha2": "GM",
      "alpha3": "GMB",
      "LDC": true,
      "nameFR": "Gambie",
      "nameES": "Gambia",
      "nameRU": "Гамбия",
      "nameZH": "冈比亚",
      "nameAR": "غامبيا"
    },
    {
      "region": 142,
      "subRegion": 145,
      "name": "Georgia",
      "m49code": 268,
      "alpha2": "GE",
      "alpha3": "GEO",
      "nameFR": "Géorgie",
      "nameES": "Georgia",
      "nameRU": "Грузия",
      "nameZH": "格鲁吉亚",
      "nameAR": " جورجيا"
    },
    {
      "region": 150,
      "subRegion": 155,
      "name": "Germany",
      "m49code": 276,
      "alpha2": "DE",
      "alpha3": "DEU",
      "nameFR": "Allemagne",
      "nameES": "Alemania",
      "nameRU": "Германия",
      "nameZH": "德国",
      "nameAR": " ألمانيا"
    },
    {
      "region": 2,
      "subRegion": 202,
      "intermediateRegion": 11,
      "name": "Ghana",
      "m49code": 288,
      "alpha2": "GH",
      "alpha3": "GHA",
      "nameFR": "Ghana",
      "nameES": "Ghana",
      "nameRU": "Гана",
      "nameZH": "加纳",
      "nameAR": "غانا"
    },
    {
      "region": 150,
      "subRegion": 39,
      "name": "Gibraltar",
      "m49code": 292,
      "alpha2": "GI",
      "alpha3": "GIB",
      "nameFR": "Gibraltar",
      "nameES": "Gibraltar",
      "nameRU": "Гибралтар",
      "nameZH": "直布罗陀",
      "nameAR": " جبل طارق"
    },
    {
      "region": 150,
      "subRegion": 39,
      "name": "Greece",
      "m49code": 300,
      "alpha2": "GR",
      "alpha3": "GRC",
      "nameFR": "Grèce",
      "nameES": "Grecia",
      "nameRU": "Греция",
      "nameZH": "希腊",
      "nameAR": " اليونان"
    },
    {
      "region": 19,
      "subRegion": 21,
      "name": "Greenland",
      "m49code": 304,
      "alpha2": "GL",
      "alpha3": "GRL",
      "nameFR": "Groenland",
      "nameES": "Groenlandia",
      "nameRU": "Гренландия",
      "nameZH": "格陵兰",
      "nameAR": " غرينلند"
    },
    {
      "region": 19,
      "subRegion": 419,
      "intermediateRegion": 29,
      "name": "Grenada",
      "m49code": 308,
      "alpha2": "GD",
      "alpha3": "GRD",
      "SIDS": true,
      "nameFR": "Grenade",
      "nameES": "Granada",
      "nameRU": "Гренада",
      "nameZH": "格林纳达",
      "nameAR": "غرينادا"
    },
    {
      "region": 19,
      "subRegion": 419,
      "intermediateRegion": 29,
      "name": "Guadeloupe",
      "m49code": 312,
      "alpha2": "GP",
      "alpha3": "GLP",
      "nameFR": "Guadeloupe",
      "nameES": "Guadalupe",
      "nameRU": "Гваделупа",
      "nameZH": "瓜德罗普",
      "nameAR": "غوادلوب"
    },
    {
      "region": 9,
      "subRegion": 57,
      "name": "Guam",
      "m49code": 316,
      "alpha2": "GU",
      "alpha3": "GUM",
      "SIDS": true,
      "nameFR": "Guam",
      "nameES": "Guam",
      "nameRU": "Гуам",
      "nameZH": "关岛",
      "nameAR": " غوام"
    },
    {
      "region": 19,
      "subRegion": 419,
      "intermediateRegion": 13,
      "name": "Guatemala",
      "m49code": 320,
      "alpha2": "GT",
      "alpha3": "GTM",
      "nameFR": "Guatemala",
      "nameES": "Guatemala",
      "nameRU": "Гватемала",
      "nameZH": "危地马拉",
      "nameAR": "غواتيمالا"
    },
    {
      "region": 150,
      "subRegion": 154,
      "intermediateRegion": 830,
      "name": "Guernsey",
      "m49code": 831,
      "alpha2": "GG",
      "alpha3": "GGY",
      "nameFR": "Guernesey",
      "nameES": "Guernsey",
      "nameRU": "Гернси",
      "nameZH": "格恩西",
      "nameAR": "غيرنسي"
    },
    {
      "region": 2,
      "subRegion": 202,
      "intermediateRegion": 11,
      "name": "Guinea",
      "m49code": 324,
      "alpha2": "GN",
      "alpha3": "GIN",
      "LDC": true,
      "nameFR": "Guinée",
      "nameES": "Guinea",
      "nameRU": "Гвинея",
      "nameZH": "几内亚",
      "nameAR": "غينيا"
    },
    {
      "region": 2,
      "subRegion": 202,
      "intermediateRegion": 11,
      "name": "Guinea-Bissau",
      "m49code": 624,
      "alpha2": "GW",
      "alpha3": "GNB",
      "LDC": true,
      "SIDS": true,
      "nameFR": "Guinée-Bissau",
      "nameES": "Guinea-Bissau",
      "nameRU": "Гвинея-Бисау",
      "nameZH": "几内亚比绍",
      "nameAR": "غينيا - بيساو"
    },
    {
      "region": 19,
      "subRegion": 419,
      "intermediateRegion": 5,
      "name": "Guyana",
      "m49code": 328,
      "alpha2": "GY",
      "alpha3": "GUY",
      "SIDS": true,
      "nameFR": "Guyana",
      "nameES": "Guyana",
      "nameRU": "Гайана",
      "nameZH": "圭亚那",
      "nameAR": "غيانا"
    },
    {
      "region": 19,
      "subRegion": 419,
      "intermediateRegion": 29,
      "name": "Haiti",
      "m49code": 332,
      "alpha2": "HT",
      "alpha3": "HTI",
      "LDC": true,
      "SIDS": true,
      "nameFR": "Haïti",
      "nameES": "Haití",
      "nameRU": "Гаити",
      "nameZH": "海地",
      "nameAR": "هايتي"
    },
    {
      "region": 9,
      "subRegion": 53,
      "name": "Heard Island and McDonald Islands",
      "m49code": 334,
      "alpha2": "HM",
      "alpha3": "HMD",
      "nameFR": "Île Heard-et-Îles MacDonald",
      "nameES": "Islas Heard y McDonald",
      "nameRU": "Остров Херд и острова Макдональд",
      "nameZH": "赫德岛和麦克唐纳岛",
      "nameAR": " جزيرة هيرد وجزر ماكدونالد"
    },
    {
      "region": 150,
      "subRegion": 39,
      "name": "Holy See",
      "m49code": 336,
      "alpha2": "VA",
      "alpha3": "VAT",
      "nameFR": "Saint-Siège",
      "nameES": "Santa Sede",
      "nameRU": "Святой Престол",
      "nameZH": "教廷",
      "nameAR": " الكرسي الرسولي"
    },
    {
      "region": 19,
      "subRegion": 419,
      "intermediateRegion": 13,
      "name": "Honduras",
      "m49code": 340,
      "alpha2": "HN",
      "alpha3": "HND",
      "nameFR": "Honduras",
      "nameES": "Honduras",
      "nameRU": "Гондурас",
      "nameZH": "洪都拉斯",
      "nameAR": "هندوراس"
    },
    {
      "region": 150,
      "subRegion": 151,
      "name": "Hungary",
      "m49code": 348,
      "alpha2": "HU",
      "alpha3": "HUN",
      "nameFR": "Hongrie",
      "nameES": "Hungría",
      "nameRU": "Венгрия",
      "nameZH": "匈牙利",
      "nameAR": " هنغاريا"
    },
    {
      "region": 150,
      "subRegion": 154,
      "name": "Iceland",
      "m49code": 352,
      "alpha2": "IS",
      "alpha3": "ISL",
      "nameFR": "Islande",
      "nameES": "Islandia",
      "nameRU": "Исландия",
      "nameZH": "冰岛",
      "nameAR": " آيسلندا"
    },
    {
      "region": 142,
      "subRegion": 34,
      "name": "India",
      "m49code": 356,
      "alpha2": "IN",
      "alpha3": "IND",
      "nameFR": "Inde",
      "nameES": "India",
      "nameRU": "Индия",
      "nameZH": "印度",
      "nameAR": " الهند"
    },
    {
      "region": 142,
      "subRegion": 35,
      "name": "Indonesia",
      "m49code": 360,
      "alpha2": "ID",
      "alpha3": "IDN",
      "nameFR": "Indonésie",
      "nameES": "Indonesia",
      "nameRU": "Индонезия",
      "nameZH": "印度尼西亚",
      "nameAR": " إندونيسيا"
    },
    {
      "region": 142,
      "subRegion": 34,
      "name": "Iran (Islamic Republic of)",
      "m49code": 364,
      "alpha2": "IR",
      "alpha3": "IRN",
      "nameFR": "Iran (République islamique d’)",
      "nameES": "Irán (República Islámica del)",
      "nameRU": "Иран (Исламская Республика)",
      "nameZH": "伊朗伊斯兰共和国",
      "nameAR": " إيران (جمهورية - الإسلامية)"
    },
    {
      "region": 142,
      "subRegion": 145,
      "name": "Iraq",
      "m49code": 368,
      "alpha2": "IQ",
      "alpha3": "IRQ",
      "nameFR": "Iraq",
      "nameES": "Iraq",
      "nameRU": "Ирак",
      "nameZH": "伊拉克",
      "nameAR": " العراق"
    },
    {
      "region": 150,
      "subRegion": 154,
      "name": "Ireland",
      "m49code": 372,
      "alpha2": "IE",
      "alpha3": "IRL",
      "nameFR": "Irlande",
      "nameES": "Irlanda",
      "nameRU": "Ирландия",
      "nameZH": "爱尔兰",
      "nameAR": " آيرلندا"
    },
    {
      "region": 150,
      "subRegion": 154,
      "name": "Isle of Man",
      "m49code": 833,
      "alpha2": "IM",
      "alpha3": "IMN",
      "nameFR": "Île de Man",
      "nameES": "Isla de Man",
      "nameRU": "Остров Мэн",
      "nameZH": "马恩岛",
      "nameAR": " جزيرة مان"
    },
    {
      "region": 142,
      "subRegion": 145,
      "name": "Israel",
      "m49code": 376,
      "alpha2": "IL",
      "alpha3": "ISR",
      "nameFR": "Israël",
      "nameES": "Israel",
      "nameRU": "Израиль",
      "nameZH": "以色列",
      "nameAR": " إسرائيل"
    },
    {
      "region": 150,
      "subRegion": 39,
      "name": "Italy",
      "m49code": 380,
      "alpha2": "IT",
      "alpha3": "ITA",
      "nameFR": "Italie",
      "nameES": "Italia",
      "nameRU": "Италия",
      "nameZH": "意大利",
      "nameAR": " إيطاليا"
    },
    {
      "region": 19,
      "subRegion": 419,
      "intermediateRegion": 29,
      "name": "Jamaica",
      "m49code": 388,
      "alpha2": "JM",
      "alpha3": "JAM",
      "SIDS": true,
      "nameFR": "Jamaïque",
      "nameES": "Jamaica",
      "nameRU": "Ямайка",
      "nameZH": "牙买加",
      "nameAR": "جامايكا"
    },
    {
      "region": 142,
      "subRegion": 30,
      "name": "Japan",
      "m49code": 392,
      "alpha2": "JP",
      "alpha3": "JPN",
      "nameFR": "Japon",
      "nameES": "Japón",
      "nameRU": "Япония",
      "nameZH": "日本",
      "nameAR": " اليابان"
    },
    {
      "region": 150,
      "subRegion": 154,
      "intermediateRegion": 830,
      "name": "Jersey",
      "m49code": 832,
      "alpha2": "JE",
      "alpha3": "JEY",
      "nameFR": "Jersey",
      "nameES": "Jersey",
      "nameRU": "Джерси",
      "nameZH": "泽西",
      "nameAR": "جيرسي"
    },
    {
      "region": 142,
      "subRegion": 145,
      "name": "Jordan",
      "m49code": 400,
      "alpha2": "JO",
      "alpha3": "JOR",
      "nameFR": "Jordanie",
      "nameES": "Jordania",
      "nameRU": "Иордания",
      "nameZH": "约旦",
      "nameAR": " الأردن"
    },
    {
      "region": 142,
      "subRegion": 143,
      "name": "Kazakhstan",
      "m49code": 398,
      "alpha2": "KZ",
      "alpha3": "KAZ",
      "LLDC": true,
      "nameFR": "Kazakhstan",
      "nameES": "Kazajstán",
      "nameRU": "Казахстан",
      "nameZH": "哈萨克斯坦",
      "nameAR": " كازاخستان"
    },
    {
      "region": 2,
      "subRegion": 202,
      "intermediateRegion": 14,
      "name": "Kenya",
      "m49code": 404,
      "alpha2": "KE",
      "alpha3": "KEN",
      "nameFR": "Kenya",
      "nameES": "Kenya",
      "nameRU": "Кения",
      "nameZH": "肯尼亚",
      "nameAR": "كينيا"
    },
    {
      "region": 9,
      "subRegion": 57,
      "name": "Kiribati",
      "m49code": 296,
      "alpha2": "KI",
      "alpha3": "KIR",
      "LDC": true,
      "SIDS": true,
      "nameFR": "Kiribati",
      "nameES": "Kiribati",
      "nameRU": "Кирибати",
      "nameZH": "基里巴斯",
      "nameAR": " كيريباس"
    },
    {
      "region": 142,
      "subRegion": 145,
      "name": "Kuwait",
      "m49code": 414,
      "alpha2": "KW",
      "alpha3": "KWT",
      "nameFR": "Koweït",
      "nameES": "Kuwait",
      "nameRU": "Кувейт",
      "nameZH": "科威特",
      "nameAR": " الكويت"
    },
    {
      "region": 142,
      "subRegion": 143,
      "name": "Kyrgyzstan",
      "m49code": 417,
      "alpha2": "KG",
      "alpha3": "KGZ",
      "LLDC": true,
      "nameFR": "Kirghizistan",
      "nameES": "Kirguistán",
      "nameRU": "Кыргызстан",
      "nameZH": "吉尔吉斯斯坦",
      "nameAR": " قيرغيزستان"
    },
    {
      "region": 142,
      "subRegion": 35,
      "name": "Lao People's Democratic Republic",
      "m49code": 418,
      "alpha2": "LA",
      "alpha3": "LAO",
      "LDC": true,
      "LLDC": true,
      "nameFR": "République démocratique populaire lao",
      "nameES": "República Democrática Popular Lao",
      "nameRU": "Лаосская Народно-Демократическая Республика",
      "nameZH": "老挝人民民主共和国",
      "nameAR": " جمهورية لاو الديمقراطية الشعبية"
    },
    {
      "region": 150,
      "subRegion": 154,
      "name": "Latvia",
      "m49code": 428,
      "alpha2": "LV",
      "alpha3": "LVA",
      "nameFR": "Lettonie",
      "nameES": "Letonia",
      "nameRU": "Латвия",
      "nameZH": "拉脱维亚",
      "nameAR": " لاتفيا"
    },
    {
      "region": 142,
      "subRegion": 145,
      "name": "Lebanon",
      "m49code": 422,
      "alpha2": "LB",
      "alpha3": "LBN",
      "nameFR": "Liban",
      "nameES": "Líbano",
      "nameRU": "Ливан",
      "nameZH": "黎巴嫩",
      "nameAR": " لبنان"
    },
    {
      "region": 2,
      "subRegion": 202,
      "intermediateRegion": 18,
      "name": "Lesotho",
      "m49code": 426,
      "alpha2": "LS",
      "alpha3": "LSO",
      "LDC": true,
      "LLDC": true,
      "nameFR": "Lesotho",
      "nameES": "Lesotho",
      "nameRU": "Лесото",
      "nameZH": "莱索托",
      "nameAR": "ليسوتو"
    },
    {
      "region": 2,
      "subRegion": 202,
      "intermediateRegion": 11,
      "name": "Liberia",
      "m49code": 430,
      "alpha2": "LR",
      "alpha3": "LBR",
      "LDC": true,
      "nameFR": "Libéria",
      "nameES": "Liberia",
      "nameRU": "Либерия",
      "nameZH": "利比里亚",
      "nameAR": "ليبريا"
    },
    {
      "region": 2,
      "subRegion": 15,
      "name": "Libya",
      "m49code": 434,
      "alpha2": "LY",
      "alpha3": "LBY",
      "nameFR": "Libye",
      "nameES": "Libia",
      "nameRU": "Ливия",
      "nameZH": "利比亚",
      "nameAR": " ليبيا"
    },
    {
      "region": 150,
      "subRegion": 155,
      "name": "Liechtenstein",
      "m49code": 438,
      "alpha2": "LI",
      "alpha3": "LIE",
      "nameFR": "Liechtenstein",
      "nameES": "Liechtenstein",
      "nameRU": "Лихтенштейн",
      "nameZH": "列支敦士登",
      "nameAR": " ليختنشتاين"
    },
    {
      "region": 150,
      "subRegion": 154,
      "name": "Lithuania",
      "m49code": 440,
      "alpha2": "LT",
      "alpha3": "LTU",
      "nameFR": "Lituanie",
      "nameES": "Lituania",
      "nameRU": "Литва",
      "nameZH": "立陶宛",
      "nameAR": " ليتوانيا"
    },
    {
      "region": 150,
      "subRegion": 155,
      "name": "Luxembourg",
      "m49code": 442,
      "alpha2": "LU",
      "alpha3": "LUX",
      "nameFR": "Luxembourg",
      "nameES": "Luxemburgo",
      "nameRU": "Люксембург",
      "nameZH": "卢森堡",
      "nameAR": " لكسمبرغ"
    },
    {
      "region": 2,
      "subRegion": 202,
      "intermediateRegion": 14,
      "name": "Madagascar",
      "m49code": 450,
      "alpha2": "MG",
      "alpha3": "MDG",
      "LDC": true,
      "nameFR": "Madagascar",
      "nameES": "Madagascar",
      "nameRU": "Мадагаскар",
      "nameZH": "马达加斯加",
      "nameAR": "مدغشقر"
    },
    {
      "region": 2,
      "subRegion": 202,
      "intermediateRegion": 14,
      "name": "Malawi",
      "m49code": 454,
      "alpha2": "MW",
      "alpha3": "MWI",
      "LDC": true,
      "LLDC": true,
      "nameFR": "Malawi",
      "nameES": "Malawi",
      "nameRU": "Малави",
      "nameZH": "马拉维",
      "nameAR": "ملاوي"
    },
    {
      "region": 142,
      "subRegion": 35,
      "name": "Malaysia",
      "m49code": 458,
      "alpha2": "MY",
      "alpha3": "MYS",
      "nameFR": "Malaisie",
      "nameES": "Malasia",
      "nameRU": "Малайзия",
      "nameZH": "马来西亚",
      "nameAR": " ماليزيا"
    },
    {
      "region": 142,
      "subRegion": 34,
      "name": "Maldives",
      "m49code": 462,
      "alpha2": "MV",
      "alpha3": "MDV",
      "SIDS": true,
      "nameFR": "Maldives",
      "nameES": "Maldivas",
      "nameRU": "Мальдивские Острова",
      "nameZH": "马尔代夫",
      "nameAR": " ملديف"
    },
    {
      "region": 2,
      "subRegion": 202,
      "intermediateRegion": 11,
      "name": "Mali",
      "m49code": 466,
      "alpha2": "ML",
      "alpha3": "MLI",
      "LDC": true,
      "LLDC": true,
      "nameFR": "Mali",
      "nameES": "Malí",
      "nameRU": "Мали",
      "nameZH": "马里",
      "nameAR": "مالي"
    },
    {
      "region": 150,
      "subRegion": 39,
      "name": "Malta",
      "m49code": 470,
      "alpha2": "MT",
      "alpha3": "MLT",
      "nameFR": "Malte",
      "nameES": "Malta",
      "nameRU": "Мальта",
      "nameZH": "马耳他",
      "nameAR": " مالطة"
    },
    {
      "region": 9,
      "subRegion": 57,
      "name": "Marshall Islands",
      "m49code": 584,
      "alpha2": "MH",
      "alpha3": "MHL",
      "SIDS": true,
      "nameFR": "Îles Marshall",
      "nameES": "Islas Marshall",
      "nameRU": "Маршалловы Острова",
      "nameZH": "马绍尔群岛",
      "nameAR": " جزر مارشال"
    },
    {
      "region": 19,
      "subRegion": 419,
      "intermediateRegion": 29,
      "name": "Martinique",
      "m49code": 474,
      "alpha2": "MQ",
      "alpha3": "MTQ",
      "nameFR": "Martinique",
      "nameES": "Martinica",
      "nameRU": "Мартиника",
      "nameZH": "马提尼克",
      "nameAR": "مارتينيك"
    },
    {
      "region": 2,
      "subRegion": 202,
      "intermediateRegion": 11,
      "name": "Mauritania",
      "m49code": 478,
      "alpha2": "MR",
      "alpha3": "MRT",
      "LDC": true,
      "nameFR": "Mauritanie",
      "nameES": "Mauritania",
      "nameRU": "Мавритания",
      "nameZH": "毛里塔尼亚",
      "nameAR": "موريتانيا"
    },
    {
      "region": 2,
      "subRegion": 202,
      "intermediateRegion": 14,
      "name": "Mauritius",
      "m49code": 480,
      "alpha2": "MU",
      "alpha3": "MUS",
      "SIDS": true,
      "nameFR": "Maurice",
      "nameES": "Mauricio",
      "nameRU": "Маврикий",
      "nameZH": "毛里求斯",
      "nameAR": "موريشيوس"
    },
    {
      "region": 2,
      "subRegion": 202,
      "intermediateRegion": 14,
      "name": "Mayotte",
      "m49code": 175,
      "alpha2": "YT",
      "alpha3": "MYT",
      "nameFR": "Mayotte",
      "nameES": "Mayotte",
      "nameRU": "Остров Майотта",
      "nameZH": "马约特",
      "nameAR": "مايوت"
    },
    {
      "region": 19,
      "subRegion": 419,
      "intermediateRegion": 13,
      "name": "Mexico",
      "m49code": 484,
      "alpha2": "MX",
      "alpha3": "MEX",
      "nameFR": "Mexique",
      "nameES": "México",
      "nameRU": "Мексика",
      "nameZH": "墨西哥",
      "nameAR": "المكسيك"
    },
    {
      "region": 9,
      "subRegion": 57,
      "name": "Micronesia (Federated States of)",
      "m49code": 583,
      "alpha2": "FM",
      "alpha3": "FSM",
      "SIDS": true,
      "nameFR": "Micronésie (États fédérés de)",
      "nameES": "Micronesia (Estados Federados de)",
      "nameRU": "Микронезия (Федеративные Штаты)",
      "nameZH": "密克罗尼西亚联邦",
      "nameAR": " ميكرونيزيا (ولايات - الموحدة)"
    },
    {
      "region": 150,
      "subRegion": 155,
      "name": "Monaco",
      "m49code": 492,
      "alpha2": "MC",
      "alpha3": "MCO",
      "nameFR": "Monaco",
      "nameES": "Mónaco",
      "nameRU": "Монако",
      "nameZH": "摩纳哥",
      "nameAR": " موناكو"
    },
    {
      "region": 142,
      "subRegion": 30,
      "name": "Mongolia",
      "m49code": 496,
      "alpha2": "MN",
      "alpha3": "MNG",
      "LLDC": true,
      "nameFR": "Mongolie",
      "nameES": "Mongolia",
      "nameRU": "Монголия",
      "nameZH": "蒙古",
      "nameAR": " منغوليا"
    },
    {
      "region": 150,
      "subRegion": 39,
      "name": "Montenegro",
      "m49code": 499,
      "alpha2": "ME",
      "alpha3": "MNE",
      "nameFR": "Monténégro",
      "nameES": "Montenegro",
      "nameRU": "Черногория",
      "nameZH": "黑山",
      "nameAR": " الجبل الأسود"
    },
    {
      "region": 19,
      "subRegion": 419,
      "intermediateRegion": 29,
      "name": "Montserrat",
      "m49code": 500,
      "alpha2": "MS",
      "alpha3": "MSR",
      "SIDS": true,
      "nameFR": "Montserrat",
      "nameES": "Montserrat",
      "nameRU": "Монтсеррат",
      "nameZH": "蒙特塞拉特",
      "nameAR": "مونتسيرات"
    },
    {
      "region": 2,
      "subRegion": 15,
      "name": "Morocco",
      "m49code": 504,
      "alpha2": "MA",
      "alpha3": "MAR",
      "nameFR": "Maroc",
      "nameES": "Marruecos",
      "nameRU": "Марокко",
      "nameZH": "摩洛哥",
      "nameAR": " المغرب"
    },
    {
      "region": 2,
      "subRegion": 202,
      "intermediateRegion": 14,
      "name": "Mozambique",
      "m49code": 508,
      "alpha2": "MZ",
      "alpha3": "MOZ",
      "LDC": true,
      "nameFR": "Mozambique",
      "nameES": "Mozambique",
      "nameRU": "Мозамбик",
      "nameZH": "莫桑比克",
      "nameAR": "موزامبيق"
    },
    {
      "region": 142,
      "subRegion": 35,
      "name": "Myanmar",
      "m49code": 104,
      "alpha2": "MM",
      "alpha3": "MMR",
      "LDC": true,
      "nameFR": "Myanmar",
      "nameES": "Myanmar",
      "nameRU": "Мьянма",
      "nameZH": "缅甸",
      "nameAR": " ميانمار"
    },
    {
      "region": 2,
      "subRegion": 202,
      "intermediateRegion": 18,
      "name": "Namibia",
      "m49code": 516,
      "alpha2": "NA",
      "alpha3": "NAM",
      "nameFR": "Namibie",
      "nameES": "Namibia",
      "nameRU": "Намибия",
      "nameZH": "纳米比亚",
      "nameAR": "ناميبيا"
    },
    {
      "region": 9,
      "subRegion": 57,
      "name": "Nauru",
      "m49code": 520,
      "alpha2": "NR",
      "alpha3": "NRU",
      "SIDS": true,
      "nameFR": "Nauru",
      "nameES": "Nauru",
      "nameRU": "Науру",
      "nameZH": "瑙鲁",
      "nameAR": " ناورو"
    },
    {
      "region": 142,
      "subRegion": 34,
      "name": "Nepal",
      "m49code": 524,
      "alpha2": "NP",
      "alpha3": "NPL",
      "LDC": true,
      "LLDC": true,
      "nameFR": "Népal",
      "nameES": "Nepal",
      "nameRU": "Непал",
      "nameZH": "尼泊尔",
      "nameAR": " نيبال"
    },
    {
      "region": 150,
      "subRegion": 155,
      "name": "Netherlands",
      "m49code": 528,
      "alpha2": "NL",
      "alpha3": "NLD",
      "nameFR": "Pays-Bas",
      "nameES": "Países Bajos",
      "nameRU": "Нидерланды",
      "nameZH": "荷兰",
      "nameAR": " هولندا"
    },
    {
      "region": 9,
      "subRegion": 54,
      "name": "New Caledonia",
      "m49code": 540,
      "alpha2": "NC",
      "alpha3": "NCL",
      "SIDS": true,
      "nameFR": "Nouvelle-Calédonie",
      "nameES": "Nueva Caledonia",
      "nameRU": "Новая Каледония",
      "nameZH": "新喀里多尼亚",
      "nameAR": " كاليدونيا الجديدة"
    },
    {
      "region": 9,
      "subRegion": 53,
      "name": "New Zealand",
      "m49code": 554,
      "alpha2": "NZ",
      "alpha3": "NZL",
      "nameFR": "Nouvelle-Zélande",
      "nameES": "Nueva Zelandia",
      "nameRU": "Новая Зеландия",
      "nameZH": "新西兰",
      "nameAR": " نيوزيلندا"
    },
    {
      "region": 19,
      "subRegion": 419,
      "intermediateRegion": 13,
      "name": "Nicaragua",
      "m49code": 558,
      "alpha2": "NI",
      "alpha3": "NIC",
      "nameFR": "Nicaragua",
      "nameES": "Nicaragua",
      "nameRU": "Никарагуа",
      "nameZH": "尼加拉瓜",
      "nameAR": "نيكاراغوا"
    },
    {
      "region": 2,
      "subRegion": 202,
      "intermediateRegion": 11,
      "name": "Niger",
      "m49code": 562,
      "alpha2": "NE",
      "alpha3": "NER",
      "LDC": true,
      "LLDC": true,
      "nameFR": "Niger",
      "nameES": "Níger",
      "nameRU": "Нигер",
      "nameZH": "尼日尔",
      "nameAR": "النيجر"
    },
    {
      "region": 2,
      "subRegion": 202,
      "intermediateRegion": 11,
      "name": "Nigeria",
      "m49code": 566,
      "alpha2": "NG",
      "alpha3": "NGA",
      "nameFR": "Nigéria",
      "nameES": "Nigeria",
      "nameRU": "Нигерия",
      "nameZH": "尼日利亚",
      "nameAR": "نيجيريا"
    },
    {
      "region": 9,
      "subRegion": 61,
      "name": "Niue",
      "m49code": 570,
      "alpha2": "NU",
      "alpha3": "NIU",
      "SIDS": true,
      "nameFR": "Nioué",
      "nameES": "Niue",
      "nameRU": "Ниуэ",
      "nameZH": "纽埃",
      "nameAR": " نيوي"
    },
    {
      "region": 9,
      "subRegion": 53,
      "name": "Norfolk Island",
      "m49code": 574,
      "alpha2": "NF",
      "alpha3": "NFK",
      "nameFR": "Île Norfolk",
      "nameES": "Isla Norfolk",
      "nameRU": "Остров Норфолк",
      "nameZH": "诺福克岛",
      "nameAR": " جزيرة نورفولك"
    },
    {
      "region": 150,
      "subRegion": 39,
      "name": "North Macedonia",
      "m49code": 807,
      "alpha2": "MK",
      "alpha3": "MKD",
      "LLDC": true,
      "nameFR": "Macédoine du Nord",
      "nameES": "Macedonia del Norte",
      "nameRU": "Северная Македония",
      "nameZH": "北马其顿",
      "nameAR": " مقدونيا الشمالية"
    },
    {
      "region": 9,
      "subRegion": 57,
      "name": "Northern Mariana Islands",
      "m49code": 580,
      "alpha2": "MP",
      "alpha3": "MNP",
      "SIDS": true,
      "nameFR": "Îles Mariannes du Nord",
      "nameES": "Islas Marianas Septentrionales",
      "nameRU": "Северные Марианские острова",
      "nameZH": "北马里亚纳群岛",
      "nameAR": " جزر ماريانا الشمالية"
    },
    {
      "region": 150,
      "subRegion": 154,
      "name": "Norway",
      "m49code": 578,
      "alpha2": "NO",
      "alpha3": "NOR",
      "nameFR": "Norvège",
      "nameES": "Noruega",
      "nameRU": "Норвегия",
      "nameZH": "挪威",
      "nameAR": " النرويج"
    },
    {
      "region": 142,
      "subRegion": 145,
      "name": "Oman",
      "m49code": 512,
      "alpha2": "OM",
      "alpha3": "OMN",
      "nameFR": "Oman",
      "nameES": "Omán",
      "nameRU": "Оман",
      "nameZH": "阿曼",
      "nameAR": " عمان"
    },
    {
      "region": 142,
      "subRegion": 34,
      "name": "Pakistan",
      "m49code": 586,
      "alpha2": "PK",
      "alpha3": "PAK",
      "nameFR": "Pakistan",
      "nameES": "Pakistán",
      "nameRU": "Пакистан",
      "nameZH": "巴基斯坦",
      "nameAR": " باكستان"
    },
    {
      "region": 9,
      "subRegion": 57,
      "name": "Palau",
      "m49code": 585,
      "alpha2": "PW",
      "alpha3": "PLW",
      "SIDS": true,
      "nameFR": "Palaos",
      "nameES": "Palau",
      "nameRU": "Палау",
      "nameZH": "帕劳",
      "nameAR": " بالاو"
    },
    {
      "region": 19,
      "subRegion": 419,
      "intermediateRegion": 13,
      "name": "Panama",
      "m49code": 591,
      "alpha2": "PA",
      "alpha3": "PAN",
      "nameFR": "Panama",
      "nameES": "Panamá",
      "nameRU": "Панама",
      "nameZH": "巴拿马",
      "nameAR": "بنما"
    },
    {
      "region": 9,
      "subRegion": 54,
      "name": "Papua New Guinea",
      "m49code": 598,
      "alpha2": "PG",
      "alpha3": "PNG",
      "SIDS": true,
      "nameFR": "Papouasie-Nouvelle-Guinée",
      "nameES": "Papua Nueva Guinea",
      "nameRU": "Папуа-Новая Гвинея",
      "nameZH": "巴布亚新几内亚",
      "nameAR": " بابوا غينيا الجديدة"
    },
    {
      "region": 19,
      "subRegion": 419,
      "intermediateRegion": 5,
      "name": "Paraguay",
      "m49code": 600,
      "alpha2": "PY",
      "alpha3": "PRY",
      "LLDC": true,
      "nameFR": "Paraguay",
      "nameES": "Paraguay",
      "nameRU": "Парагвай",
      "nameZH": "巴拉圭",
      "nameAR": "باراغواي"
    },
    {
      "region": 19,
      "subRegion": 419,
      "intermediateRegion": 5,
      "name": "Peru",
      "m49code": 604,
      "alpha2": "PE",
      "alpha3": "PER",
      "nameFR": "Pérou",
      "nameES": "Perú",
      "nameRU": "Перу",
      "nameZH": "秘鲁",
      "nameAR": "بيرو"
    },
    {
      "region": 142,
      "subRegion": 35,
      "name": "Philippines",
      "m49code": 608,
      "alpha2": "PH",
      "alpha3": "PHL",
      "nameFR": "Philippines",
      "nameES": "Filipinas",
      "nameRU": "Филиппины",
      "nameZH": "菲律宾",
      "nameAR": " الفلبين"
    },
    {
      "region": 9,
      "subRegion": 61,
      "name": "Pitcairn",
      "m49code": 612,
      "alpha2": "PN",
      "alpha3": "PCN",
      "nameFR": "Pitcairn",
      "nameES": "Pitcairn",
      "nameRU": "Питкэрн",
      "nameZH": "皮特凯恩",
      "nameAR": " بيتكرن"
    },
    {
      "region": 150,
      "subRegion": 151,
      "name": "Poland",
      "m49code": 616,
      "alpha2": "PL",
      "alpha3": "POL",
      "nameFR": "Pologne",
      "nameES": "Polonia",
      "nameRU": "Польша",
      "nameZH": "波兰",
      "nameAR": " بولندا"
    },
    {
      "region": 150,
      "subRegion": 39,
      "name": "Portugal",
      "m49code": 620,
      "alpha2": "PT",
      "alpha3": "PRT",
      "nameFR": "Portugal",
      "nameES": "Portugal",
      "nameRU": "Португалия",
      "nameZH": "葡萄牙",
      "nameAR": " البرتغال"
    },
    {
      "region": 19,
      "subRegion": 419,
      "intermediateRegion": 29,
      "name": "Puerto Rico",
      "m49code": 630,
      "alpha2": "PR",
      "alpha3": "PRI",
      "SIDS": true,
      "nameFR": "Porto Rico",
      "nameES": "Puerto Rico",
      "nameRU": "Пуэрто-Рико",
      "nameZH": "波多黎各",
      "nameAR": "بورتوريكو"
    },
    {
      "region": 142,
      "subRegion": 145,
      "name": "Qatar",
      "m49code": 634,
      "alpha2": "QA",
      "alpha3": "QAT",
      "nameFR": "Qatar",
      "nameES": "Qatar",
      "nameRU": "Катар",
      "nameZH": "卡塔尔",
      "nameAR": " قطر"
    },
    {
      "region": 142,
      "subRegion": 30,
      "name": "Republic of Korea",
      "m49code": 410,
      "alpha2": "KR",
      "alpha3": "KOR",
      "nameFR": "République de Corée",
      "nameES": "República de Corea",
      "nameRU": "Республика Корея",
      "nameZH": "大韩民国",
      "nameAR": " جمهورية كوريا"
    },
    {
      "region": 150,
      "subRegion": 151,
      "name": "Republic of Moldova",
      "m49code": 498,
      "alpha2": "MD",
      "alpha3": "MDA",
      "LLDC": true,
      "nameFR": "République de Moldova",
      "nameES": "República de Moldova",
      "nameRU": "Республика Молдова",
      "nameZH": "摩尔多瓦共和国",
      "nameAR": " جمهورية مولدوفا"
    },
    {
      "region": 150,
      "subRegion": 151,
      "name": "Romania",
      "m49code": 642,
      "alpha2": "RO",
      "alpha3": "ROU",
      "nameFR": "Roumanie",
      "nameES": "Rumania",
      "nameRU": "Румыния",
      "nameZH": "罗马尼亚",
      "nameAR": " رومانيا"
    },
    {
      "region": 150,
      "subRegion": 151,
      "name": "Russian Federation",
      "m49code": 643,
      "alpha2": "RU",
      "alpha3": "RUS",
      "nameFR": "Fédération de Russie",
      "nameES": "Federación de Rusia",
      "nameRU": "Российская Федерация",
      "nameZH": "俄罗斯联邦",
      "nameAR": " الاتحاد الروسي"
    },
    {
      "region": 2,
      "subRegion": 202,
      "intermediateRegion": 14,
      "name": "Rwanda",
      "m49code": 646,
      "alpha2": "RW",
      "alpha3": "RWA",
      "LDC": true,
      "LLDC": true,
      "nameFR": "Rwanda",
      "nameES": "Rwanda",
      "nameRU": "Руанда",
      "nameZH": "卢旺达",
      "nameAR": "رواندا"
    },
    {
      "region": 2,
      "subRegion": 202,
      "intermediateRegion": 14,
      "name": "Réunion",
      "m49code": 638,
      "alpha2": "RE",
      "alpha3": "REU",
      "nameFR": "Réunion",
      "nameES": "Reunión",
      "nameRU": "Реюньон",
      "nameZH": "留尼汪",
      "nameAR": "ريونيون"
    },
    {
      "region": 19,
      "subRegion": 419,
      "intermediateRegion": 29,
      "name": "Saint Barthélemy",
      "m49code": 652,
      "alpha2": "BL",
      "alpha3": "BLM",
      "nameFR": "Saint-Barthélemy",
      "nameES": "San Barthélemy",
      "nameRU": "Сен-Бартелеми",
      "nameZH": "圣巴泰勒米",
      "nameAR": "سان بارتليمي"
    },
    {
      "region": 2,
      "subRegion": 202,
      "intermediateRegion": 11,
      "name": "Saint Helena",
      "m49code": 654,
      "alpha2": "SH",
      "alpha3": "SHN",
      "nameFR": "Sainte-Hélène",
      "nameES": "Santa Elena",
      "nameRU": "Остров Святой Елены",
      "nameZH": "圣赫勒拿",
      "nameAR": "سانت هيلانة"
    },
    {
      "region": 19,
      "subRegion": 419,
      "intermediateRegion": 29,
      "name": "Saint Kitts and Nevis",
      "m49code": 659,
      "alpha2": "KN",
      "alpha3": "KNA",
      "SIDS": true,
      "nameFR": "Saint-Kitts-et-Nevis",
      "nameES": "Saint Kitts y Nevis",
      "nameRU": "Сент-Китс и Невис",
      "nameZH": "圣基茨和尼维斯",
      "nameAR": "سانت كيتس ونيفس"
    },
    {
      "region": 19,
      "subRegion": 419,
      "intermediateRegion": 29,
      "name": "Saint Lucia",
      "m49code": 662,
      "alpha2": "LC",
      "alpha3": "LCA",
      "SIDS": true,
      "nameFR": "Sainte-Lucie",
      "nameES": "Santa Lucía",
      "nameRU": "Сент-Люсия",
      "nameZH": "圣卢西亚",
      "nameAR": "سانت لوسيا"
    },
    {
      "region": 19,
      "subRegion": 419,
      "intermediateRegion": 29,
      "name": "Saint Martin (French Part)",
      "m49code": 663,
      "alpha2": "MF",
      "alpha3": "MAF",
      "nameFR": "Saint-Martin (partie française)",
      "nameES": "San Martín (parte francesa)",
      "nameRU": "Сен-Мартен (французская часть)",
      "nameZH": "圣马丁（法属）",
      "nameAR": "سانت مارتن (الجزء الفرنسي)"
    },
    {
      "region": 19,
      "subRegion": 21,
      "name": "Saint Pierre and Miquelon",
      "m49code": 666,
      "alpha2": "PM",
      "alpha3": "SPM",
      "nameFR": "Saint-Pierre-et-Miquelon",
      "nameES": "San Pedro y Miquelón",
      "nameRU": "Сен-Пьер и Микелон",
      "nameZH": "圣皮埃尔和密克隆",
      "nameAR": " سان بيير وميكلون"
    },
    {
      "region": 19,
      "subRegion": 419,
      "intermediateRegion": 29,
      "name": "Saint Vincent and the Grenadines",
      "m49code": 670,
      "alpha2": "VC",
      "alpha3": "VCT",
      "SIDS": true,
      "nameFR": "Saint-Vincent-et-les Grenadines",
      "nameES": "San Vicente y las Granadinas",
      "nameRU": "Сент-Винсент и Гренадины",
      "nameZH": "圣文森特和格林纳丁斯",
      "nameAR": "سانت فنسنت وجزر غرينادين"
    },
    {
      "region": 9,
      "subRegion": 61,
      "name": "Samoa",
      "m49code": 882,
      "alpha2": "WS",
      "alpha3": "WSM",
      "SIDS": true,
      "nameFR": "Samoa",
      "nameES": "Samoa",
      "nameRU": "Самоа",
      "nameZH": "萨摩亚",
      "nameAR": " ساموا"
    },
    {
      "region": 150,
      "subRegion": 39,
      "name": "San Marino",
      "m49code": 674,
      "alpha2": "SM",
      "alpha3": "SMR",
      "nameFR": "Saint-Marin",
      "nameES": "San Marino",
      "nameRU": "Сан-Марино",
      "nameZH": "圣马力诺",
      "nameAR": " سان مارينو"
    },
    {
      "region": 2,
      "subRegion": 202,
      "intermediateRegion": 17,
      "name": "Sao Tome and Principe",
      "m49code": 678,
      "alpha2": "ST",
      "alpha3": "STP",
      "LDC": true,
      "SIDS": true,
      "nameFR": "Sao Tomé-et-Principe",
      "nameES": "Santo Tomé y Príncipe",
      "nameRU": "Сан-Томе и Принсипи",
      "nameZH": "圣多美和普林西比",
      "nameAR": "سان تومي وبرينسيبي"
    },
    {
      "region": 150,
      "subRegion": 154,
      "intermediateRegion": 830,
      "name": "Sark",
      "m49code": 680,
      "nameFR": "Sercq",
      "nameES": "Sark",
      "nameRU": "Сарк",
      "nameZH": "萨克",
      "nameAR": "سارك"
    },
    {
      "region": 142,
      "subRegion": 145,
      "name": "Saudi Arabia",
      "m49code": 682,
      "alpha2": "SA",
      "alpha3": "SAU",
      "nameFR": "Arabie saoudite",
      "nameES": "Arabia Saudita",
      "nameRU": "Саудовская Аравия",
      "nameZH": "沙特阿拉伯",
      "nameAR": " المملكة العربية السعودية"
    },
    {
      "region": 2,
      "subRegion": 202,
      "intermediateRegion": 11,
      "name": "Senegal",
      "m49code": 686,
      "alpha2": "SN",
      "alpha3": "SEN",
      "LDC": true,
      "nameFR": "Sénégal",
      "nameES": "Senegal",
      "nameRU": "Сенегал",
      "nameZH": "塞内加尔",
      "nameAR": "السنغال"
    },
    {
      "region": 150,
      "subRegion": 39,
      "name": "Serbia",
      "m49code": 688,
      "alpha2": "RS",
      "alpha3": "SRB",
      "nameFR": "Serbie",
      "nameES": "Serbia",
      "nameRU": "Сербия",
      "nameZH": "塞尔维亚",
      "nameAR": " صربيا"
    },
    {
      "region": 2,
      "subRegion": 202,
      "intermediateRegion": 14,
      "name": "Seychelles",
      "m49code": 690,
      "alpha2": "SC",
      "alpha3": "SYC",
      "SIDS": true,
      "nameFR": "Seychelles",
      "nameES": "Seychelles",
      "nameRU": "Сейшельские Острова",
      "nameZH": "塞舌尔",
      "nameAR": "سيشيل"
    },
    {
      "region": 2,
      "subRegion": 202,
      "intermediateRegion": 11,
      "name": "Sierra Leone",
      "m49code": 694,
      "alpha2": "SL",
      "alpha3": "SLE",
      "LDC": true,
      "nameFR": "Sierra Leone",
      "nameES": "Sierra Leona",
      "nameRU": "Сьерра-Леоне",
      "nameZH": "塞拉利昂",
      "nameAR": "سيراليون"
    },
    {
      "region": 142,
      "subRegion": 35,
      "name": "Singapore",
      "m49code": 702,
      "alpha2": "SG",
      "alpha3": "SGP",
      "SIDS": true,
      "nameFR": "Singapour",
      "nameES": "Singapur",
      "nameRU": "Сингапур",
      "nameZH": "新加坡",
      "nameAR": " سنغافورة"
    },
    {
      "region": 19,
      "subRegion": 419,
      "intermediateRegion": 29,
      "name": "Sint Maarten (Dutch part)",
      "m49code": 534,
      "alpha2": "SX",
      "alpha3": "SXM",
      "SIDS": true,
      "nameFR": "Saint-Martin (partie néerlandaise)",
      "nameES": "San Martín (parte Holandesa)",
      "nameRU": "Синт-Мартен (нидерландская часть)",
      "nameZH": "圣马丁（荷属）",
      "nameAR": "سانت مارتن (الجزء الهولندي)"
    },
    {
      "region": 150,
      "subRegion": 151,
      "name": "Slovakia",
      "m49code": 703,
      "alpha2": "SK",
      "alpha3": "SVK",
      "nameFR": "Slovaquie",
      "nameES": "Eslovaquia",
      "nameRU": "Словакия",
      "nameZH": "斯洛伐克",
      "nameAR": " سلوفاكيا"
    },
    {
      "region": 150,
      "subRegion": 39,
      "name": "Slovenia",
      "m49code": 705,
      "alpha2": "SI",
      "alpha3": "SVN",
      "nameFR": "Slovénie",
      "nameES": "Eslovenia",
      "nameRU": "Словения",
      "nameZH": "斯洛文尼亚",
      "nameAR": " سلوفينيا"
    },
    {
      "region": 9,
      "subRegion": 54,
      "name": "Solomon Islands",
      "m49code": 90,
      "alpha2": "SB",
      "alpha3": "SLB",
      "LDC": true,
      "SIDS": true,
      "nameFR": "Îles Salomon",
      "nameES": "Islas Salomón",
      "nameRU": "Соломоновы Острова",
      "nameZH": "所罗门群岛",
      "nameAR": " جزر سليمان"
    },
    {
      "region": 2,
      "subRegion": 202,
      "intermediateRegion": 14,
      "name": "Somalia",
      "m49code": 706,
      "alpha2": "SO",
      "alpha3": "SOM",
      "LDC": true,
      "nameFR": "Somalie",
      "nameES": "Somalia",
      "nameRU": "Сомали",
      "nameZH": "索马里",
      "nameAR": "الصومال"
    },
    {
      "region": 2,
      "subRegion": 202,
      "intermediateRegion": 18,
      "name": "South Africa",
      "m49code": 710,
      "alpha2": "ZA",
      "alpha3": "ZAF",
      "nameFR": "Afrique du Sud",
      "nameES": "Sudáfrica",
      "nameRU": "Южная Африка",
      "nameZH": "南非",
      "nameAR": "جنوب أفريقيا"
    },
    {
      "region": 19,
      "subRegion": 419,
      "intermediateRegion": 5,
      "name": "South Georgia and the South Sandwich Islands",
      "m49code": 239,
      "alpha2": "GS",
      "alpha3": "SGS",
      "nameFR": "Géorgie du Sud-et-les Îles Sandwich du Sud",
      "nameES": "Georgia del Sur y las Islas Sandwich del Sur",
      "nameRU": "Южная Джорджия и Южные Сандвичевы острова",
      "nameZH": "南乔治亚岛和南桑德韦奇岛",
      "nameAR": "جورجيا الجنوبية وجزر ساندويتش الجنوبية"
    },
    {
      "region": 2,
      "subRegion": 202,
      "intermediateRegion": 14,
      "name": "South Sudan",
      "m49code": 728,
      "alpha2": "SS",
      "alpha3": "SSD",
      "LDC": true,
      "LLDC": true,
      "nameFR": "Soudan du Sud",
      "nameES": "Sudán del Sur",
      "nameRU": "Южный Судан",
      "nameZH": "南苏丹",
      "nameAR": "جنوب السودان"
    },
    {
      "region": 150,
      "subRegion": 39,
      "name": "Spain",
      "m49code": 724,
      "alpha2": "ES",
      "alpha3": "ESP",
      "nameFR": "Espagne",
      "nameES": "España",
      "nameRU": "Испания",
      "nameZH": "西班牙",
      "nameAR": " إسبانيا"
    },
    {
      "region": 142,
      "subRegion": 34,
      "name": "Sri Lanka",
      "m49code": 144,
      "alpha2": "LK",
      "alpha3": "LKA",
      "nameFR": "Sri Lanka",
      "nameES": "Sri Lanka",
      "nameRU": "Шри-Ланка",
      "nameZH": "斯里兰卡",
      "nameAR": " سري لانكا"
    },
    {
      "region": 142,
      "subRegion": 145,
      "name": "State of Palestine",
      "m49code": 275,
      "alpha2": "PS",
      "alpha3": "PSE",
      "nameFR": "État de Palestine",
      "nameES": "Estado de Palestina",
      "nameRU": "Государство Палестина",
      "nameZH": "巴勒斯坦国",
      "nameAR": " دولة فلسطين"
    },
    {
      "region": 2,
      "subRegion": 15,
      "name": "Sudan",
      "m49code": 729,
      "alpha2": "SD",
      "alpha3": "SDN",
      "LDC": true,
      "nameFR": "Soudan",
      "nameES": "Sudán",
      "nameRU": "Судан",
      "nameZH": "苏丹",
      "nameAR": " السودان"
    },
    {
      "region": 19,
      "subRegion": 419,
      "intermediateRegion": 5,
      "name": "Suriname",
      "m49code": 740,
      "alpha2": "SR",
      "alpha3": "SUR",
      "SIDS": true,
      "nameFR": "Suriname",
      "nameES": "Suriname",
      "nameRU": "Суринам",
      "nameZH": "苏里南",
      "nameAR": "سورينام"
    },
    {
      "region": 150,
      "subRegion": 154,
      "name": "Svalbard and Jan Mayen Islands",
      "m49code": 744,
      "alpha2": "SJ",
      "alpha3": "SJM",
      "nameFR": "Îles Svalbard-et-Jan Mayen",
      "nameES": "Islas Svalbard y Jan Mayen",
      "nameRU": "Острова Свальбард и Ян-Майен",
      "nameZH": "斯瓦尔巴群岛和扬马延岛",
      "nameAR": " جزيرتي سفالبارد وجان مايِن"
    },
    {
      "region": 150,
      "subRegion": 154,
      "name": "Sweden",
      "m49code": 752,
      "alpha2": "SE",
      "alpha3": "SWE",
      "nameFR": "Suède",
      "nameES": "Suecia",
      "nameRU": "Швеция",
      "nameZH": "瑞典",
      "nameAR": " السويد"
    },
    {
      "region": 150,
      "subRegion": 155,
      "name": "Switzerland",
      "m49code": 756,
      "alpha2": "CH",
      "alpha3": "CHE",
      "nameFR": "Suisse",
      "nameES": "Suiza",
      "nameRU": "Швейцария",
      "nameZH": "瑞士",
      "nameAR": " سويسرا"
    },
    {
      "region": 142,
      "subRegion": 145,
      "name": "Syrian Arab Republic",
      "m49code": 760,
      "alpha2": "SY",
      "alpha3": "SYR",
      "nameFR": "République arabe syrienne",
      "nameES": "República Árabe Siria",
      "nameRU": "Сирийская Арабская Республика",
      "nameZH": "阿拉伯叙利亚共和国",
      "nameAR": " الجمهورية العربية السورية"
    },
    {
      "region": 142,
      "subRegion": 143,
      "name": "Tajikistan",
      "m49code": 762,
      "alpha2": "TJ",
      "alpha3": "TJK",
      "LLDC": true,
      "nameFR": "Tadjikistan",
      "nameES": "Tayikistán",
      "nameRU": "Таджикистан",
      "nameZH": "塔吉克斯坦",
      "nameAR": " طاجيكستان"
    },
    {
      "region": 142,
      "subRegion": 35,
      "name": "Thailand",
      "m49code": 764,
      "alpha2": "TH",
      "alpha3": "THA",
      "nameFR": "Thaïlande",
      "nameES": "Tailandia",
      "nameRU": "Таиланд",
      "nameZH": "泰国",
      "nameAR": " تايلند"
    },
    {
      "region": 142,
      "subRegion": 35,
      "name": "Timor-Leste",
      "m49code": 626,
      "alpha2": "TL",
      "alpha3": "TLS",
      "LDC": true,
      "SIDS": true,
      "nameFR": "Timor-Leste",
      "nameES": "Timor-Leste",
      "nameRU": "Тимор-Лешти",
      "nameZH": "东帝汶",
      "nameAR": " تيمور - ليشتي"
    },
    {
      "region": 2,
      "subRegion": 202,
      "intermediateRegion": 11,
      "name": "Togo",
      "m49code": 768,
      "alpha2": "TG",
      "alpha3": "TGO",
      "LDC": true,
      "nameFR": "Togo",
      "nameES": "Togo",
      "nameRU": "Того",
      "nameZH": "多哥",
      "nameAR": "توغو"
    },
    {
      "region": 9,
      "subRegion": 61,
      "name": "Tokelau",
      "m49code": 772,
      "alpha2": "TK",
      "alpha3": "TKL",
      "nameFR": "Tokélaou",
      "nameES": "Tokelau",
      "nameRU": "Токелау",
      "nameZH": "托克劳",
      "nameAR": " توكيلاو"
    },
    {
      "region": 9,
      "subRegion": 61,
      "name": "Tonga",
      "m49code": 776,
      "alpha2": "TO",
      "alpha3": "TON",
      "SIDS": true,
      "nameFR": "Tonga",
      "nameES": "Tonga",
      "nameRU": "Тонга",
      "nameZH": "汤加",
      "nameAR": " تونغا"
    },
    {
      "region": 19,
      "subRegion": 419,
      "intermediateRegion": 29,
      "name": "Trinidad and Tobago",
      "m49code": 780,
      "alpha2": "TT",
      "alpha3": "TTO",
      "SIDS": true,
      "nameFR": "Trinité-et-Tobago",
      "nameES": "Trinidad y Tabago",
      "nameRU": "Тринидад и Тобаго",
      "nameZH": "特立尼达和多巴哥",
      "nameAR": "ترينيداد وتوباغو"
    },
    {
      "region": 2,
      "subRegion": 15,
      "name": "Tunisia",
      "m49code": 788,
      "alpha2": "TN",
      "alpha3": "TUN",
      "nameFR": "Tunisie",
      "nameES": "Túnez",
      "nameRU": "Тунис",
      "nameZH": "突尼斯",
      "nameAR": " تونس"
    },
    {
      "region": 142,
      "subRegion": 143,
      "name": "Turkmenistan",
      "m49code": 795,
      "alpha2": "TM",
      "alpha3": "TKM",
      "LLDC": true,
      "nameFR": "Turkménistan",
      "nameES": "Turkmenistán",
      "nameRU": "Туркменистан",
      "nameZH": "土库曼斯坦",
      "nameAR": " تركمانستان"
    },
    {
      "region": 19,
      "subRegion": 419,
      "intermediateRegion": 29,
      "name": "Turks and Caicos Islands",
      "m49code": 796,
      "alpha2": "TC",
      "alpha3": "TCA",
      "nameFR": "Îles Turques-et-Caïques",
      "nameES": "Islas Turcas y Caicos",
      "nameRU": "Острова Теркс и Кайкос",
      "nameZH": "特克斯和凯科斯群岛",
      "nameAR": "جزر تركس وكايكوس"
    },
    {
      "region": 9,
      "subRegion": 61,
      "name": "Tuvalu",
      "m49code": 798,
      "alpha2": "TV",
      "alpha3": "TUV",
      "LDC": true,
      "SIDS": true,
      "nameFR": "Tuvalu",
      "nameES": "Tuvalu",
      "nameRU": "Тувалу",
      "nameZH": "图瓦卢",
      "nameAR": " توفالو"
    },
    {
      "region": 142,
      "subRegion": 145,
      "name": "Türkiye",
      "m49code": 792,
      "alpha2": "TR",
      "alpha3": "TUR",
      "nameFR": "Türkiye",
      "nameES": "Türkiye",
      "nameRU": "Турция",
      "nameZH": "土耳其",
      "nameAR": " تركيا"
    },
    {
      "region": 2,
      "subRegion": 202,
      "intermediateRegion": 14,
      "name": "Uganda",
      "m49code": 800,
      "alpha2": "UG",
      "alpha3": "UGA",
      "LDC": true,
      "LLDC": true,
      "nameFR": "Ouganda",
      "nameES": "Uganda",
      "nameRU": "Уганда",
      "nameZH": "乌干达",
      "nameAR": "أوغندا"
    },
    {
      "region": 150,
      "subRegion": 151,
      "name": "Ukraine",
      "m49code": 804,
      "alpha2": "UA",
      "alpha3": "UKR",
      "nameFR": "Ukraine",
      "nameES": "Ucrania",
      "nameRU": "Украина",
      "nameZH": "乌克兰",
      "nameAR": " أوكرانيا"
    },
    {
      "region": 142,
      "subRegion": 145,
      "name": "United Arab Emirates",
      "m49code": 784,
      "alpha2": "AE",
      "alpha3": "ARE",
      "nameFR": "Émirats arabes unis",
      "nameES": "Emiratos Árabes Unidos",
      "nameRU": "Объединенные Арабские Эмираты",
      "nameZH": "阿拉伯联合酋长国",
      "nameAR": " الإمارات العربية المتحدة"
    },
    {
      "region": 150,
      "subRegion": 154,
      "name": "United Kingdom of Great Britain and Northern Ireland",
      "m49code": 826,
      "alpha2": "GB",
      "alpha3": "GBR",
      "nameFR": "Royaume-Uni de Grande-Bretagne et d’Irlande du Nord",
      "nameES": "Reino Unido de Gran Bretaña e Irlanda del Norte",
      "nameRU": "Соединенное Королевство Великобритании и Северной Ирландии",
      "nameZH": "大不列颠及北爱尔兰联合王国",
      "nameAR": " المملكة المتحدة لبريطانيا العظمى وآيرلندا الشمالية"
    },
    {
      "region": 2,
      "subRegion": 202,
      "intermediateRegion": 14,
      "name": "United Republic of Tanzania",
      "m49code": 834,
      "alpha2": "TZ",
      "alpha3": "TZA",
      "LDC": true,
      "nameFR": "République-Unie de Tanzanie",
      "nameES": "República Unida de Tanzanía",
      "nameRU": "Объединенная Республика Танзания",
      "nameZH": "坦桑尼亚联合共和国",
      "nameAR": "جمهورية تنزانيا المتحدة"
    },
    {
      "region": 9,
      "subRegion": 57,
      "name": "United States Minor Outlying Islands",
      "m49code": 581,
      "alpha2": "UM",
      "alpha3": "UMI",
      "nameFR": "Îles mineures éloignées des États-Unis",
      "nameES": "Islas menores alejadas de Estados Unidos",
      "nameRU": "Внешние малые острова Соединенных Штатов",
      "nameZH": "美国本土外小岛屿",
      "nameAR": " نائية التابعة للولايات المتحدة "
    },
    {
      "region": 19,
      "subRegion": 419,
      "intermediateRegion": 29,
      "name": "United States Virgin Islands",
      "m49code": 850,
      "alpha2": "VI",
      "alpha3": "VIR",
      "SIDS": true,
      "nameFR": "Îles Vierges américaines",
      "nameES": "Islas Vírgenes de los Estados Unidos",
      "nameRU": "Виргинские острова Соединенных Штатов",
      "nameZH": "美属维尔京群岛",
      "nameAR": "جزر فرجن التابعة للولايات المتحدة"
    },
    {
      "region": 19,
      "subRegion": 21,
      "name": "United States of America",
      "m49code": 840,
      "alpha2": "US",
      "alpha3": "USA",
      "nameFR": "États-Unis d’Amérique",
      "nameES": "Estados Unidos de América",
      "nameRU": "Соединенные Штаты Америки",
      "nameZH": "美利坚合众国",
      "nameAR": " الولايات المتحدة الأمريكية"
    },
    {
      "region": 19,
      "subRegion": 419,
      "intermediateRegion": 5,
      "name": "Uruguay",
      "m49code": 858,
      "alpha2": "UY",
      "alpha3": "URY",
      "nameFR": "Uruguay",
      "nameES": "Uruguay",
      "nameRU": "Уругвай",
      "nameZH": "乌拉圭",
      "nameAR": "أوروغواي"
    },
    {
      "region": 142,
      "subRegion": 143,
      "name": "Uzbekistan",
      "m49code": 860,
      "alpha2": "UZ",
      "alpha3": "UZB",
      "LLDC": true,
      "nameFR": "Ouzbékistan",
      "nameES": "Uzbekistán",
      "nameRU": "Узбекистан",
      "nameZH": "乌兹别克斯坦",
      "nameAR": " أوزبكستان"
    },
    {
      "region": 9,
      "subRegion": 54,
      "name": "Vanuatu",
      "m49code": 548,
      "alpha2": "VU",
      "alpha3": "VUT",
      "SIDS": true,
      "nameFR": "Vanuatu",
      "nameES": "Vanuatu",
      "nameRU": "Вануату",
      "nameZH": "瓦努阿图",
      "nameAR": " فانواتو"
    },
    {
      "region": 19,
      "subRegion": 419,
      "intermediateRegion": 5,
      "name": "Venezuela (Bolivarian Republic of)",
      "m49code": 862,
      "alpha2": "VE",
      "alpha3": "VEN",
      "nameFR": "Venezuela (République bolivarienne du)",
      "nameES": "Venezuela (República Bolivariana de)",
      "nameRU": "Венесуэла (Боливарианская Республика)",
      "nameZH": "委内瑞拉玻利瓦尔共和国",
      "nameAR": "فنزويلا (جمهورية - البوليفارية)"
    },
    {
      "region": 142,
      "subRegion": 35,
      "name": "Viet Nam",
      "m49code": 704,
      "alpha2": "VN",
      "alpha3": "VNM",
      "nameFR": "Viet Nam",
      "nameES": "Viet Nam",
      "nameRU": "Вьетнам",
      "nameZH": "越南",
      "nameAR": " فييت نام"
    },
    {
      "region": 9,
      "subRegion": 61,
      "name": "Wallis and Futuna Islands",
      "m49code": 876,
      "alpha2": "WF",
      "alpha3": "WLF",
      "nameFR": "Îles Wallis-et-Futuna",
      "nameES": "Islas Wallis y Futuna",
      "nameRU": "Острова Уоллис и Футуна",
      "nameZH": "瓦利斯群岛和富图纳群岛",
      "nameAR": " جزر واليس وفوتونا"
    },
    {
      "region": 2,
      "subRegion": 15,
      "name": "Western Sahara",
      "m49code": 732,
      "alpha2": "EH",
      "alpha3": "ESH",
      "nameFR": "Sahara occidental",
      "nameES": "Sáhara Occidental",
      "nameRU": "Западная Сахара",
      "nameZH": "西撒哈拉",
      "nameAR": " الصحراء الغربية"
    },
    {
      "region": 142,
      "subRegion": 145,
      "name": "Yemen",
      "m49code": 887,
      "alpha2": "YE",
      "alpha3": "YEM",
      "LDC": true,
      "nameFR": "Yémen",
      "nameES": "Yemen",
      "nameRU": "Йемен",
      "nameZH": "也门",
      "nameAR": " اليمن"
    },
    {
      "region": 2,
      "subRegion": 202,
      "intermediateRegion": 14,
      "name": "Zambia",
      "m49code": 894,
      "alpha2": "ZM",
      "alpha3": "ZMB",
      "LDC": true,
      "LLDC": true,
      "nameFR": "Zambie",
      "nameES": "Zambia",
      "nameRU": "Замбия",
      "nameZH": "赞比亚",
      "nameAR": "زامبيا"
    },
    {
      "region": 2,
      "subRegion": 202,
      "intermediateRegion": 14,
      "name": "Zimbabwe",
      "m49code": 716,
      "alpha2": "ZW",
      "alpha3": "ZWE",
      "LLDC": true,
      "nameFR": "Zimbabwe",
      "nameES": "Zimbabwe",
      "nameRU": "Зимбабве",
      "nameZH": "津巴布韦",
      "nameAR": "زمبابوي"
    },
    {
      "region": 150,
      "subRegion": 154,
      "name": "Åland Islands",
      "m49code": 248,
      "alpha2": "AX",
      "alpha3": "ALA",
      "nameFR": "Îles d’Åland",
      "nameES": "Islas Åland",
      "nameRU": "Аландских островов",
      "nameZH": "奥兰群岛",
      "nameAR": " جزر ألاند"
    }
  ]
}
